[{"OBJECT_NAME":"VSP RF A1","OBJECT_ID":"2024-043AP","EPOCH":"2026-03-07T00:44:15.345024","MEAN_MOTION":15.26179596,"ECCENTRICITY":0.00094313,"INCLINATION":97.5247,"RA_OF_ASC_NODE":201.5379,"ARG_OF_PERICENTER":234.6315,"MEAN_ANOMALY":125.4042,"EPHEMERIS_TYPE":0,"CLASSIFICATION_TYPE":"U","NORAD_CAT_ID":59135,"ELEMENT_SET_NO":999,"REV_AT_EPOCH":11140,"BSTAR":2.5198753e-5,"MEAN_MOTION_DOT":5.77e-6,"MEAN_MOTION_DDOT":0},{"OBJECT_NAME":"STARLINK-34126","OBJECT_ID":"2025-107V","EPOCH":"2026-03-09T09:37:39.870624","MEAN_MOTION":15.27616604,"ECCENTRICITY":0.00015505,"INCLINATION":42.9998,"RA_OF_ASC_NODE":203.4065,"ARG_OF_PERICENTER":276.3985,"MEAN_ANOMALY":83.669,"EPHEMERIS_TYPE":0,"CLASSIFICATION_TYPE":"U","NORAD_CAT_ID":64083,"ELEMENT_SET_NO":999,"REV_AT_EPOCH":4498,"BSTAR":0.00092823773,"MEAN_MOTION_DOT":0.00025398,"MEAN_MOTION_DDOT":0}]
